[{"OBJECT_NAME":"GAOFEN-9 05","OBJECT_ID":"2020-058A","EPOCH":"2026-03-10T00:01:50.876256","MEAN_MOTION":15.30293976,"ECCENTRICITY":0.0010522,"INCLINATION":97.2228,"RA_OF_ASC_NODE":111.963,"ARG_OF_PERICENTER":91.0204,"MEAN_ANOMALY":269.2242,"EPHEMERIS_TYPE":0,"CLASSIFICATION_TYPE":"U","NORAD_CAT_ID":46232,"ELEMENT_SET_NO":999,"REV_AT_EPOCH":30843,"BSTAR":0.00025120304,"MEAN_MOTION_DOT":7.299e-5,"MEAN_MOTION_DDOT":0},{"OBJECT_NAME":"STARLINK-31772","OBJECT_ID":"2024-065K","EPOCH":"2026-03-09T21:26:47.498784","MEAN_MOTION":15.30186823,"ECCENTRICITY":0.0001166,"INCLINATION":53.1596,"RA_OF_ASC_NODE":280.5107,"ARG_OF_PERICENTER":95.1136,"MEAN_ANOMALY":264.9998,"EPHEMERIS_TYPE":0,"CLASSIFICATION_TYPE":"U","NORAD_CAT_ID":59430,"ELEMENT_SET_NO":999,"REV_AT_EPOCH":10896,"BSTAR":9.794072e-6,"MEAN_MOTION_DOT":-6.9e-7,"MEAN_MOTION_DDOT":0}]
